{
    "satellites": [
        {
            "name": "starlink313",
            "title": "Starlink-313 (G11-12) (new)",
            "tle": [
                "1 70617C 25240AD  25301.71576389 -.01278800  00000+0 -21908-2 0  3017",
                "2 70617  53.1559 323.4209 0000650  78.5395  43.2035 16.03039617    16"
            ],
            "stdMag": 5,
            "noradId": "70617",
            "tleUrl": "http://celestrak.org/NORAD/elements/supplemental/sup-gp.php?FILE=starlink&FORMAT=tle",
            "launchDate": "2025-10-25T14:20:50.000Z",
            "active": true,
            "batch": [
                {
                    "noradId": "70617",
                    "tle": [
                        "1 70617C 25240AD  25301.71576389 -.01278800  00000+0 -21908-2 0  3017",
                        "2 70617  53.1559 323.4209 0000650  78.5395  43.2035 16.03039617    16"
                    ]
                },
                {
                    "noradId": "70612",
                    "tle": [
                        "1 70612C 25240Y   25301.71645833 -.01270900  00000+0 -22171-2 0  3019",
                        "2 70612  53.1560 323.4203 0000731  70.3130  53.9904 16.02721587    10"
                    ]
                },
                {
                    "noradId": "70614",
                    "tle": [
                        "1 70614C 25240AA  25301.71506944 -.01276700  00000+0 -22129-2 0  3017",
                        "2 70614  53.1560 323.4264 0000721  71.6282  45.1215 16.02838034    14"
                    ]
                },
                {
                    "noradId": "70616",
                    "tle": [
                        "1 70616C 25240AC  25301.71854167 -.01269100  00000+0 -22276-2 0  3011",
                        "2 70616  53.1559 323.4104 0000712  76.0785  59.7884 16.02613390    13"
                    ]
                },
                {
                    "noradId": "70613",
                    "tle": [
                        "1 70613C 25240Z   25301.71506944 -.01265900  00000+0 -22310-2 0  3018",
                        "2 70613  53.1559 323.4293 0000673  69.1363  46.2340 16.02541159    11"
                    ]
                },
                {
                    "noradId": "70615",
                    "tle": [
                        "1 70615C 25240AB  25301.71645833 -.01279300  00000+0 -22060-2 0  3012",
                        "2 70615  53.1560 323.4181 0000695  99.6305  25.6565 16.02927730    12"
                    ]
                },
                {
                    "noradId": "70611",
                    "tle": [
                        "1 70611C 25240X   25301.71437500 -.01256100  00000+0 -22410-2 0  3010",
                        "2 70611  53.1558 323.4348 0000737  80.8286  29.6011 16.02320921    16"
                    ]
                },
                {
                    "noradId": "70610",
                    "tle": [
                        "1 70610C 25240W   25301.71576389 -.01260500  00000+0 -22387-2 0  3010",
                        "2 70610  53.1559 323.4266 0000628  70.3340  48.5735 16.02403849    13"
                    ]
                },
                {
                    "noradId": "70609",
                    "tle": [
                        "1 70609C 25240V   25301.71923611 -.01249400  00000+0 -22607-2 0  3013",
                        "2 70609  53.1559 323.4117 0000788  81.9945  55.5589 16.02069944    11"
                    ]
                },
                {
                    "noradId": "70608",
                    "tle": [
                        "1 70608C 25240U   25301.71923611 -.01252800  00000+0 -22538-2 0  3013",
                        "2 70608  53.1560 323.4106 0000822  84.4715  53.5450 16.02173860    10"
                    ]
                },
                {
                    "noradId": "70607",
                    "tle": [
                        "1 70607C 25240T   25301.71923611 -.01245900  00000+0 -22671-2 0  3013",
                        "2 70607  53.1560 323.4126 0000730  81.5084  55.5834 16.01969443    13"
                    ]
                },
                {
                    "noradId": "70606",
                    "tle": [
                        "1 70606C 25240S   25301.71923611 -.01239400  00000+0 -22727-2 0  3012",
                        "2 70606  53.1560 323.4135 0000706  74.3659  62.2525 16.01829982    18"
                    ]
                },
                {
                    "noradId": "70605",
                    "tle": [
                        "1 70605C 25240R   25301.71923611 -.01229100  00000+0 -22838-2 0  3010",
                        "2 70605  53.1562 323.4156 0000802  72.3334  63.3486 16.01589793    18"
                    ]
                },
                {
                    "noradId": "70604",
                    "tle": [
                        "1 70604C 25240Q   25301.71854167 -.01231900  00000+0 -22763-2 0  3016",
                        "2 70604  53.1562 323.4182 0001000  51.4827  80.6527 16.01688423    10"
                    ]
                },
                {
                    "noradId": "70603",
                    "tle": [
                        "1 70603C 25240P   25301.71993056 -.01224600  00000+0 -22880-2 0  3015",
                        "2 70603  53.1563 323.4131 0000758  82.4367  56.7881 16.01488949    14"
                    ]
                },
                {
                    "noradId": "70602",
                    "tle": [
                        "1 70602C 25240N   25301.71854167 -.01219500  00000+0 -22957-2 0  3011",
                        "2 70602  53.1564 323.4210 0000671  74.0310  56.7087 16.01353697    10"
                    ]
                },
                {
                    "noradId": "70601",
                    "tle": [
                        "1 70601C 25240M   25301.71645833 -.01212800  00000+0 -22953-2 0  3010",
                        "2 70601  53.1564 323.4330 0000775  65.8887  52.3736 16.01254134    13"
                    ]
                },
                {
                    "noradId": "70600",
                    "tle": [
                        "1 70600C 25240L   25301.71437500 -.01208500  00000+0 -23019-2 0  3015",
                        "2 70600  53.1564 323.4448 0000664  87.6918  18.0843 16.01137668    16"
                    ]
                },
                {
                    "noradId": "70599",
                    "tle": [
                        "1 70599C 25240K   25301.71437500 -.01201300  00000+0 -23060-2 0  3019",
                        "2 70599  53.1565 323.4458 0000653  82.1400  23.1673 16.00994261    16"
                    ]
                },
                {
                    "noradId": "70598",
                    "tle": [
                        "1 70598C 25240J   25301.73659722 -.01194500  00000+0 -23120-2 0  3012",
                        "2 70598  53.1565 323.3321 0000744  74.8436 158.1449 16.00842196    10"
                    ]
                },
                {
                    "noradId": "70597",
                    "tle": [
                        "1 70597C 25240H   25301.73381944 -.01192500  00000+0 -23209-2 0  3015",
                        "2 70597  53.1566 323.3475 0000712  90.3235 126.1802 16.00742899    12"
                    ]
                },
                {
                    "noradId": "70596",
                    "tle": [
                        "1 70596C 25240G   25301.71784722 -.01184900  00000+0 -23180-2 0  3016",
                        "2 70596  53.1564 323.4309 0000800  78.8778  45.0561 16.00644843    18"
                    ]
                },
                {
                    "noradId": "70595",
                    "tle": [
                        "1 70595C 25240F   25301.71715278 -.01181500  00000+0 -23283-2 0  3012",
                        "2 70595  53.1566 323.4354 0000717  73.0410  46.4145 16.00513472    12"
                    ]
                },
                {
                    "noradId": "70594",
                    "tle": [
                        "1 70594C 25240E   25301.71784722 -.01177700  00000+0 -23323-2 0  3013",
                        "2 70594  53.1567 323.4328 0000694  72.3364  50.6277 16.00422213    12"
                    ]
                },
                {
                    "noradId": "70593",
                    "tle": [
                        "1 70593C 25240D   25301.71854167 -.01170500  00000+0 -23344-2 0  3017",
                        "2 70593  53.1567 323.4302 0000784  76.8989  49.5963 16.00289777    10"
                    ]
                },
                {
                    "noradId": "70592",
                    "tle": [
                        "1 70592C 25240C   25301.73243056 -.01164600  00000+0 -23418-2 0  3013",
                        "2 70592  53.1567 323.3596 0000688  91.8147 114.2698 16.00140370    19"
                    ]
                },
                {
                    "noradId": "70591",
                    "tle": [
                        "1 70591C 25240B   25301.73520833 -.01158800  00000+0 -23461-2 0  3016",
                        "2 70591  53.1567 323.3463 0000785  79.6574 141.9581 16.00013417    16"
                    ]
                },
                {
                    "noradId": "70590",
                    "tle": [
                        "1 70590C 25240A   25301.71993056 -.01153300  00000+0 -23459-2 0  3011",
                        "2 70590  53.1567 323.4260 0000848  76.0026  57.0938 15.99924804    15"
                    ]
                }
            ]
        }
    ],
    "config": {}
}